{"fetched_at":"2026-03-29T16:36:15Z","count":15609,"tles":[{"name":"STARLINK-31818","line1":"1 59741U 24090M   26087.69115290  .00000861  00000+0  40807-4 0  9994","line2":"2 59741  43.0031  76.4021 0001084 270.7567  89.3161 15.27575301106344","category":"Starlink"}]}